CCSDS_OMM_VERS = 2.0
CREATION_DATE  = 
ORIGINATOR     = 

OBJECT_NAME    = ALOS-2
OBJECT_ID      = 2014-029A
CENTER_NAME    = EARTH
REF_FRAME      = TEME
TIME_SYSTEM    = UTC
MEAN_ELEMENT_THEORY = SGP/SGP4

EPOCH          = 2026-03-10T06:14:12.793056
MEAN_MOTION    = 14.79507281
ECCENTRICITY   = .00014211
INCLINATION    = 97.9190
RA_OF_ASC_NODE = 167.8484
ARG_OF_PERICENTER = 98.7525
MEAN_ANOMALY   = 261.3847

EPHEMERIS_TYPE = 0
CLASSIFICATION_TYPE = U
NORAD_CAT_ID   = 39766
ELEMENT_SET_NO = 999
REV_AT_EPOCH   = 63695
BSTAR          = .30749502E-3
MEAN_MOTION_DOT = .2248E-4
MEAN_MOTION_DDOT = 0

CCSDS_OMM_VERS = 2.0
CREATION_DATE  = 
ORIGINATOR     = 

OBJECT_NAME    = YAOGAN-29
OBJECT_ID      = 2015-069A
CENTER_NAME    = EARTH
REF_FRAME      = TEME
TIME_SYSTEM    = UTC
MEAN_ELEMENT_THEORY = SGP/SGP4

EPOCH          = 2026-03-10T08:01:19.682112
MEAN_MOTION    = 14.82996254
ECCENTRICITY   = .00018865
INCLINATION    = 98.0144
RA_OF_ASC_NODE = 97.7657
ARG_OF_PERICENTER = 34.9839
MEAN_ANOMALY   = 325.1498

EPHEMERIS_TYPE = 0
CLASSIFICATION_TYPE = U
NORAD_CAT_ID   = 41038
ELEMENT_SET_NO = 999
REV_AT_EPOCH   = 55597
BSTAR          = .53717615E-4
MEAN_MOTION_DOT = .382E-5
MEAN_MOTION_DDOT = 0

CCSDS_OMM_VERS = 2.0
CREATION_DATE  = 
ORIGINATOR     = 

OBJECT_NAME    = ASTRO-H (HITOMI)
OBJECT_ID      = 2016-012A
CENTER_NAME    = EARTH
REF_FRAME      = TEME
TIME_SYSTEM    = UTC
MEAN_ELEMENT_THEORY = SGP/SGP4

EPOCH          = 2026-03-09T23:09:02.707488
MEAN_MOTION    = 15.10008525
ECCENTRICITY   = .00098476
INCLINATION    = 31.0008
RA_OF_ASC_NODE = 354.7735
ARG_OF_PERICENTER = 333.7785
MEAN_ANOMALY   = 26.2354

EPHEMERIS_TYPE = 0
CLASSIFICATION_TYPE = U
NORAD_CAT_ID   = 41337
ELEMENT_SET_NO = 999
REV_AT_EPOCH   = 55227
BSTAR          = .25030993E-3
MEAN_MOTION_DOT = .4267E-4
MEAN_MOTION_DDOT = 0

CCSDS_OMM_VERS = 2.0
CREATION_DATE  = 
ORIGINATOR     = 

OBJECT_NAME    = HXMT (HUIYAN)
OBJECT_ID      = 2017-034A
CENTER_NAME    = EARTH
REF_FRAME      = TEME
TIME_SYSTEM    = UTC
MEAN_ELEMENT_THEORY = SGP/SGP4

EPOCH          = 2026-03-10T07:18:04.322016
MEAN_MOTION    = 15.17476255
ECCENTRICITY   = .00329792
INCLINATION    = 43.0157
RA_OF_ASC_NODE = 13.2567
ARG_OF_PERICENTER = 239.7303
MEAN_ANOMALY   = 120.0280

EPHEMERIS_TYPE = 0
CLASSIFICATION_TYPE = U
NORAD_CAT_ID   = 42758
ELEMENT_SET_NO = 999
REV_AT_EPOCH   = 48263
BSTAR          = .42437147E-3
MEAN_MOTION_DOT = .8545E-4
MEAN_MOTION_DDOT = 0

CCSDS_OMM_VERS = 2.0
CREATION_DATE  = 
ORIGINATOR     = 

OBJECT_NAME    = SAOCOM 1A
OBJECT_ID      = 2018-076A
CENTER_NAME    = EARTH
REF_FRAME      = TEME
TIME_SYSTEM    = UTC
MEAN_ELEMENT_THEORY = SGP/SGP4

EPOCH          = 2026-03-09T23:06:42.673824
MEAN_MOTION    = 14.82173643
ECCENTRICITY   = .0001339
INCLINATION    = 97.8895
RA_OF_ASC_NODE = 257.1316
ARG_OF_PERICENTER = 83.6952
MEAN_ANOMALY   = 276.4413

EPHEMERIS_TYPE = 0
CLASSIFICATION_TYPE = U
NORAD_CAT_ID   = 43641
ELEMENT_SET_NO = 999
REV_AT_EPOCH   = 40140
BSTAR          = .17043E-3
MEAN_MOTION_DOT = .1305E-4
MEAN_MOTION_DDOT = 0

CCSDS_OMM_VERS = 2.0
CREATION_DATE  = 
ORIGINATOR     = 

OBJECT_NAME    = H-2A R/B
OBJECT_ID      = 2018-084L
CENTER_NAME    = EARTH
REF_FRAME      = TEME
TIME_SYSTEM    = UTC
MEAN_ELEMENT_THEORY = SGP/SGP4

EPOCH          = 2026-03-10T02:56:11.665536
MEAN_MOTION    = 15.41368885
ECCENTRICITY   = .00253776
INCLINATION    = 98.8731
RA_OF_ASC_NODE = 286.6024
ARG_OF_PERICENTER = 23.8947
MEAN_ANOMALY   = 336.3467

EPHEMERIS_TYPE = 0
CLASSIFICATION_TYPE = U
NORAD_CAT_ID   = 43682
ELEMENT_SET_NO = 999
REV_AT_EPOCH   = 40584
BSTAR          = .51988093E-3
MEAN_MOTION_DOT = .21874E-3
MEAN_MOTION_DDOT = 0

CCSDS_OMM_VERS = 2.0
CREATION_DATE  = 
ORIGINATOR     = 

OBJECT_NAME    = SAOCOM 1B
OBJECT_ID      = 2020-059A
CENTER_NAME    = EARTH
REF_FRAME      = TEME
TIME_SYSTEM    = UTC
MEAN_ELEMENT_THEORY = SGP/SGP4

EPOCH          = 2026-03-06T22:57:01.124064
MEAN_MOTION    = 14.82173062
ECCENTRICITY   = .00015046
INCLINATION    = 97.8885
RA_OF_ASC_NODE = 253.2654
ARG_OF_PERICENTER = 81.2285
MEAN_ANOMALY   = 278.9098

EPHEMERIS_TYPE = 0
CLASSIFICATION_TYPE = U
NORAD_CAT_ID   = 46265
ELEMENT_SET_NO = 999
REV_AT_EPOCH   = 29834
BSTAR          = .17595012E-3
MEAN_MOTION_DOT = .1349E-4
MEAN_MOTION_DDOT = 0

CCSDS_OMM_VERS = 2.0
CREATION_DATE  = 
ORIGINATOR     = 

OBJECT_NAME    = CSS (TIANHE)
OBJECT_ID      = 2021-035A
CENTER_NAME    = EARTH
REF_FRAME      = TEME
TIME_SYSTEM    = UTC
MEAN_ELEMENT_THEORY = SGP/SGP4

EPOCH          = 2026-03-10T06:59:45.583584
MEAN_MOTION    = 15.60691261
ECCENTRICITY   = .00069786
INCLINATION    = 41.4662
RA_OF_ASC_NODE = 204.4993
ARG_OF_PERICENTER = 276.4011
MEAN_ANOMALY   = 83.6033

EPHEMERIS_TYPE = 0
CLASSIFICATION_TYPE = U
NORAD_CAT_ID   = 48274
ELEMENT_SET_NO = 999
REV_AT_EPOCH   = 27770
BSTAR          = .32677228E-3
MEAN_MOTION_DOT = .27696E-3
MEAN_MOTION_DDOT = 0

CCSDS_OMM_VERS = 2.0
CREATION_DATE  = 
ORIGINATOR     = 

OBJECT_NAME    = COSMOS 2550
OBJECT_ID      = 2021-056A
CENTER_NAME    = EARTH
REF_FRAME      = TEME
TIME_SYSTEM    = UTC
MEAN_ELEMENT_THEORY = SGP/SGP4

EPOCH          = 2026-03-08T11:22:34.326624
MEAN_MOTION    = 15.33829151
ECCENTRICITY   = .00083692
INCLINATION    = 67.1451
RA_OF_ASC_NODE = 44.6088
ARG_OF_PERICENTER = 269.6014
MEAN_ANOMALY   = 90.4182

EPHEMERIS_TYPE = 0
CLASSIFICATION_TYPE = U
NORAD_CAT_ID   = 48865
ELEMENT_SET_NO = 999
REV_AT_EPOCH   = 26327
BSTAR          = -.13338E-7
MEAN_MOTION_DOT = -.192E-5
MEAN_MOTION_DDOT = 0

CCSDS_OMM_VERS = 2.0
CREATION_DATE  = 
ORIGINATOR     = 

OBJECT_NAME    = CZ-2C R/B
OBJECT_ID      = 2022-058K
CENTER_NAME    = EARTH
REF_FRAME      = TEME
TIME_SYSTEM    = UTC
MEAN_ELEMENT_THEORY = SGP/SGP4

EPOCH          = 2026-03-10T02:11:00.320352
MEAN_MOTION    = 15.54266256
ECCENTRICITY   = .00421494
INCLINATION    = 50.1894
RA_OF_ASC_NODE = 316.2255
ARG_OF_PERICENTER = 202.5748
MEAN_ANOMALY   = 157.3370

EPHEMERIS_TYPE = 0
CLASSIFICATION_TYPE = U
NORAD_CAT_ID   = 52794
ELEMENT_SET_NO = 999
REV_AT_EPOCH   = 21019
BSTAR          = .57032723E-3
MEAN_MOTION_DOT = .39191E-3
MEAN_MOTION_DDOT = 0

CCSDS_OMM_VERS = 2.0
CREATION_DATE  = 
ORIGINATOR     = 

OBJECT_NAME    = CZ-2C R/B
OBJECT_ID      = 2022-132E
CENTER_NAME    = EARTH
REF_FRAME      = TEME
TIME_SYSTEM    = UTC
MEAN_ELEMENT_THEORY = SGP/SGP4

EPOCH          = 2026-03-10T00:17:47.161824
MEAN_MOTION    = 15.61874020
ECCENTRICITY   = .00206612
INCLINATION    = 97.2968
RA_OF_ASC_NODE = 72.3390
ARG_OF_PERICENTER = 90.3292
MEAN_ANOMALY   = 270.0333

EPHEMERIS_TYPE = 0
CLASSIFICATION_TYPE = U
NORAD_CAT_ID   = 54039
ELEMENT_SET_NO = 999
REV_AT_EPOCH   = 19042
BSTAR          = .51999039E-3
MEAN_MOTION_DOT = .4566E-3
MEAN_MOTION_DDOT = 0

CCSDS_OMM_VERS = 2.0
CREATION_DATE  = 
ORIGINATOR     = 

OBJECT_NAME    = GSLV R/B
OBJECT_ID      = 2022-138AN
CENTER_NAME    = EARTH
REF_FRAME      = TEME
TIME_SYSTEM    = UTC
MEAN_ELEMENT_THEORY = SGP/SGP4

EPOCH          = 2026-03-10T07:44:26.039040
MEAN_MOTION    = 14.96780192
ECCENTRICITY   = .00230459
INCLINATION    = 87.3874
RA_OF_ASC_NODE = 166.1505
ARG_OF_PERICENTER = 144.6084
MEAN_ANOMALY   = 215.6683

EPHEMERIS_TYPE = 0
CLASSIFICATION_TYPE = U
NORAD_CAT_ID   = 54149
ELEMENT_SET_NO = 999
REV_AT_EPOCH   = 18402
BSTAR          = .34610509E-3
MEAN_MOTION_DOT = .4007E-4
MEAN_MOTION_DDOT = 0

